CCSDS_OEM_VERS = 1.0
CREATION_DATE  = 2017-05-11T12:04:19
ORIGINATOR     = GMAT USER

META_START
OBJECT_NAME          = MOPSSat_alt_35785_km_RAAN_270_132
OBJECT_ID            = SatId
CENTER_NAME          = Earth
REF_FRAME            = EME2000
TIME_SYSTEM          = UTC
START_TIME           = 2017-01-01T00:00:00.000
USEABLE_START_TIME   = 2017-01-01T00:00:00.000
USEABLE_STOP_TIME    = 2017-01-02T00:00:00.000
STOP_TIME            = 2017-01-02T00:00:00.000
INTERPOLATION        = Lagrange
INTERPOLATION_DEGREE = 7 
META_STOP


                                                                                   

2017-01-01T02:17:30.000   3.073942612939890e+04  -8.683458260293979e+03  -8.779124363964647e-02   2.253688491287754e+00   3.228659660948065e+00  -2.003996324453932e-05
2017-01-01T02:17:40.000   3.076194421873542e+04  -8.651166362019956e+03  -8.799172319586235e-02   2.249929640554625e+00   3.229719069715629e+00  -2.005594232885465e-05
2017-01-01T02:17:50.000   3.078442472841908e+04  -8.618863896062299e+03  -8.819236238090020e-02   2.246172597983534e+00   3.230773251476196e+00  -2.007188933060369e-05
2017-01-01T02:18:00.000   3.080686767655901e+04  -8.586550914641621e+03  -8.839316087386943e-02   2.242417368939281e+00   3.231822216155987e+00  -2.008780423732329e-05
2017-01-01T02:18:10.000   3.082927308134287e+04  -8.554227469843509e+03  -8.859411835397701e-02   2.238663958751070e+00   3.232865973674854e+00  -2.010368703665190e-05
2017-01-01T02:18:20.000   3.085164096108860e+04  -8.521893613541139e+03  -8.879523450101384e-02   2.234912372703729e+00   3.233904533948475e+00  -2.011953771637125e-05
2017-01-01T02:18:30.000   3.087397133416503e+04  -8.489549397511255e+03  -8.899650899463220e-02   2.231162616051181e+00   3.234937906884729e+00  -2.013535626434480e-05
2017-01-01T02:18:40.000   3.089626421898381e+04  -8.457194873445993e+03  -8.919794151427266e-02   2.227414694017885e+00   3.235966102383277e+00  -2.015114266851396e-05
2017-01-01T02:18:50.000   3.091851963397457e+04  -8.424830092984545e+03  -8.939953173897434e-02   2.223668611802779e+00   3.236989130334160e+00  -2.016689691687474e-05
2017-01-01T02:19:00.000   3.094073759756963e+04  -8.392455107739843e+03  -8.960127934720281e-02   2.219924374582240e+00   3.238007000617300e+00  -2.018261899747253e-05
2017-01-01T02:19:10.000   3.096291812826785e+04  -8.360069969203165e+03  -8.980318401744893e-02   2.216181987499229e+00   3.239019723105269e+00  -2.019830889844511e-05
2017-01-01T02:19:20.000   3.098506124434582e+04  -8.327674729171893e+03  -9.000524542555377e-02   2.212441455712517e+00   3.240027307650391e+00  -2.021396660782437e-05
2017-01-01T02:19:30.000   3.100716696420801e+04  -8.295269439231526e+03  -9.020746324794887e-02   2.208702784337212e+00   3.241029764100344e+00  -2.022959211377772e-05
2017-01-01T02:19:40.000   3.102923530625573e+04  -8.262854150948317e+03  -9.040983716045380e-02   2.204965978467027e+00   3.242027102292213e+00  -2.024518540451755e-05
2017-01-01T02:19:50.000   3.105126628939489e+04  -8.230428915123799e+03  -9.061236684293079e-02   2.201231043088414e+00   3.243019332075429e+00  -2.026074646865408e-05
2017-01-01T02:20:00.000   3.107325993252856e+04  -8.197993782538450e+03  -9.081505197464521e-02   2.197497983166428e+00   3.244006463288713e+00  -2.027627529484253e-05
2017-01-01T02:20:10.000   3.109521625467228e+04  -8.165548803783467e+03  -9.101789223531469e-02   2.193766803625361e+00   3.244988505765322e+00  -2.029177187186245e-05
2017-01-01T02:20:20.000   3.111713527466421e+04  -8.133094029679684e+03  -9.122088730250459e-02   2.190037509397429e+00   3.245965469319561e+00  -2.030723618841825e-05
2017-01-01T02:20:30.000   3.113901701138130e+04  -8.100629510967100e+03  -9.142403685355734e-02   2.186310105386718e+00   3.246937363756892e+00  -2.032266823328646e-05
2017-01-01T02:20:40.000   3.116086148373686e+04  -8.068155298304407e+03  -9.162734056560129e-02   2.182584596469397e+00   3.247904198873585e+00  -2.033806799531587e-05
2017-01-01T02:20:50.000   3.118266871047522e+04  -8.035671442582614e+03  -9.183079811357678e-02   2.178860987529379e+00   3.248865984448037e+00  -2.035343546327753e-05
2017-01-01T02:21:00.000   3.120443871044956e+04  -8.003177994503350e+03  -9.203440917288896e-02   2.175139283410415e+00   3.249822730252603e+00  -2.036877062606567e-05
2017-01-01T02:21:10.000   3.122617150251152e+04  -7.970675004744925e+03  -9.223817341836650e-02   2.171419488935137e+00   3.250774446048755e+00  -2.038407347261794e-05
2017-01-01T02:21:20.000   3.124786710600146e+04  -7.938162523229019e+03  -9.244209052885966e-02   2.167701608821197e+00   3.251721141608546e+00  -2.039934399226575e-05
2017-01-01T02:21:30.000   3.126952554025714e+04  -7.905640599854079e+03  -9.264616018264529e-02   2.163985647765345e+00   3.252662826692983e+00  -2.041458217438315e-05
2017-01-01T02:21:40.000   3.129114682472522e+04  -7.873109284329799e+03  -9.285038205846370e-02   2.160271610424501e+00   3.253599511056947e+00  -2.042978800846673e-05
2017-01-01T02:21:50.000   3.131273097867571e+04  -7.840568626597224e+03  -9.305475583289573e-02   2.156559501464227e+00   3.254531204436306e+00  -2.044496148393082e-05
2017-01-01T02:22:00.000   3.133427802141489e+04  -7.808018676517376e+03  -9.325928118230564e-02   2.152849325522832e+00   3.255457916557572e+00  -2.046010259026071e-05
2017-01-01T02:22:10.000   3.135578797228296e+04  -7.775459483870820e+03  -9.346395778285012e-02   2.149141087211583e+00   3.256379657137579e+00  -2.047521131701016e-05
2017-01-01T02:22:20.000   3.137726085045180e+04  -7.742891098672058e+03  -9.366878530849107e-02   2.145434791150199e+00   3.257296435875211e+00  -2.049028765365973e-05
2017-01-01T02:22:30.000   3.139869667519871e+04  -7.710313570746773e+03  -9.387376343366619e-02   2.141730441919174e+00   3.258208262462671e+00  -2.050533158980912e-05
2017-01-01T02:22:40.000   3.142009546579741e+04  -7.677726949898340e+03  -9.407889183224048e-02   2.138028044078711e+00   3.259115146580883e+00  -2.052034311509990e-05
2017-01-01T02:22:50.000   3.144145724200112e+04  -7.645131285172606e+03  -9.428417018213532e-02   2.134327602085281e+00   3.260017097919923e+00  -2.053532221955836e-05
2017-01-01T02:23:00.000   3.146278202355848e+04  -7.612526625593194e+03  -9.448959816070245e-02   2.130629120375286e+00   3.260914126158434e+00  -2.055026889325138e-05
2017-01-01T02:23:10.000   3.148406983032354e+04  -7.579913019995565e+03  -9.469517544576786e-02   2.126932603346227e+00   3.261806240968305e+00  -2.056518312636534e-05
2017-01-01T02:23:20.000   3.150532068197452e+04  -7.547290517448249e+03  -9.490090171299100e-02   2.123238055404947e+00   3.262693452002384e+00  -2.058006490900174e-05
2017-01-01T02:23:30.000   3.152653459822351e+04  -7.514659166940586e+03  -9.510677663782088e-02   2.119545480931911e+00   3.263575768903699e+00  -2.059491423133150e-05
2017-01-01T02:23:40.000   3.154771159881404e+04  -7.482019017382385e+03  -9.531279989550503e-02   2.115854884281402e+00   3.264453201305139e+00  -2.060973108359047e-05
2017-01-01T02:23:50.000   3.156885170332226e+04  -7.449370117918991e+03  -9.551897115908979e-02   2.112166269816851e+00   3.265325758821612e+00  -2.062451545594825e-05
2017-01-01T02:24:00.000   3.158995493142606e+04  -7.416712517507567e+03  -9.572529010210766e-02   2.108479641863377e+00   3.266193451060739e+00  -2.063926733868840e-05
2017-01-01T02:24:10.000   3.161102130279618e+04  -7.384046265087163e+03  -9.593175639750214e-02   2.104795004727009e+00   3.267056287618419e+00  -2.065398672213492e-05
2017-01-01T02:24:20.000   3.163205083757913e+04  -7.351371408829342e+03  -9.613836972236539e-02   2.101112362610234e+00   3.267914278098573e+00  -2.066867359698229e-05
2017-01-01T02:24:30.000   3.165304355591212e+04  -7.318687996889576e+03  -9.634512975319141e-02   2.097431719696868e+00   3.268767432093200e+00  -2.068332795396372e-05
2017-01-01T02:24:40.000   3.167399947804820e+04  -7.285996077213486e+03  -9.655203616710063e-02   2.093753080130254e+00   3.269615759187516e+00  -2.069794978393594e-05
2017-01-01T02:24:50.000   3.169491862401733e+04  -7.253295698057994e+03  -9.675908863855368e-02   2.090076448072318e+00   3.270459268945806e+00  -2.071253907764939e-05
2017-01-01T02:25:00.000   3.171580101390622e+04  -7.220586907561587e+03  -9.696628684206184e-02   2.086401827654967e+00   3.271297970923102e+00  -2.072709582593660e-05
2017-01-01T02:25:10.000   3.173664666779540e+04  -7.187869753840331e+03  -9.717363045158416e-02   2.082729222991073e+00   3.272131874662486e+00  -2.074162001967076e-05
2017-01-01T02:25:20.000   3.175745560577842e+04  -7.155144284962453e+03  -9.738111914068212e-02   2.079058638171468e+00   3.272960989696089e+00  -2.075611164977192e-05
2017-01-01T02:25:30.000   3.177822784797999e+04  -7.122410548915322e+03  -9.758875258273625e-02   2.075390077261515e+00   3.273785325545561e+00  -2.077057070722674e-05
2017-01-01T02:25:40.000   3.179896341456363e+04  -7.089668593593852e+03  -9.779653045102039e-02   2.071723544299858e+00   3.274604891722379e+00  -2.078499718309104e-05
2017-01-01T02:25:50.000   3.181966232580663e+04  -7.056918466683742e+03  -9.800445241944088e-02   2.068059043285333e+00   3.275419697730880e+00  -2.079939106854989e-05
2017-01-01T02:26:00.000   3.184032460204892e+04  -7.024160215739325e+03  -9.821251816204744e-02   2.064396578185903e+00   3.276229753066068e+00  -2.081375235487378e-05
2017-01-01T02:26:10.000   3.186095026369314e+04  -6.991393888183738e+03  -9.842072735303321e-02   2.060736152938716e+00   3.277035067213606e+00  -2.082808103342155e-05
2017-01-01T02:26:20.000   3.188153933125201e+04  -6.958619531230587e+03  -9.862907966723679e-02   2.057077771441566e+00   3.277835649651514e+00  -2.084237709566497e-05
2017-01-01T02:26:30.000   3.190209182527554e+04  -6.925837192001470e+03  -9.883757477939466e-02   2.053421437566013e+00   3.278631509847380e+00  -2.085664053314622e-05
